{
  "norad_id": 54694,
  "name": "JILIN-1 GAOFEN 03D49",
  "history": [
    {
      "epoch": "2026-03-28T21:36:40.538880Z",
      "apogee_km": 464.1748036734134,
      "perigee_km": 454.9322973562821,
      "latitude_deg": 1.9655218094748916e-05,
      "longitude_deg": 104.062106496521,
      "height_km": 461.11238287352506,
      "semi_major_axis_km": 6837.690550514848,
      "eccentricity": 0.00067585,
      "inclination_deg": 97.6733,
      "raan_deg": 254.5453,
      "arg_perigee_deg": 70.639,
      "mean_anomaly_deg": 289.5583,
      "mean_motion_rev_day": 15.35460323
    },
    {
      "epoch": "2026-03-29T05:25:53.374944Z",
      "apogee_km": 464.1244117619008,
      "perigee_km": 454.8949562678181,
      "latitude_deg": -3.4199114816118055e-05,
      "longitude_deg": -13.223235337619831,
      "height_km": 460.9977521664838,
      "semi_major_axis_km": 6837.64668401486,
      "eccentricity": 0.0006749,
      "inclination_deg": 97.6733,
      "raan_deg": 254.8846,
      "arg_perigee_deg": 69.6747,
      "mean_anomaly_deg": 290.522,
      "mean_motion_rev_day": 15.35475099
    },
    {
      "epoch": "2026-03-30T04:53:30.587136Z",
      "apogee_km": 463.98959142320837,
      "perigee_km": 454.82181416730145,
      "latitude_deg": -5.27266210997743e-05,
      "longitude_deg": -5.073864819887153,
      "height_km": 460.6824186093006,
      "semi_major_axis_km": 6837.542702795255,
      "eccentricity": 0.0006704,
      "inclination_deg": 97.6732,
      "raan_deg": 255.9025,
      "arg_perigee_deg": 66.6789,
      "mean_anomaly_deg": 293.5158,
      "mean_motion_rev_day": 15.35510125
    },
    {
      "epoch": "2026-03-30T06:27:21.003840Z",
      "apogee_km": 463.9849133660373,
      "perigee_km": 454.81536580962165,
      "latitude_deg": -4.7214000646549294e-05,
      "longitude_deg": -28.53026647136608,
      "height_km": 460.6601733387507,
      "semi_major_axis_km": 6837.537139587829,
      "eccentricity": 0.00067053,
      "inclination_deg": 97.6732,
      "raan_deg": 255.9704,
      "arg_perigee_deg": 66.4562,
      "mean_anomaly_deg": 293.7384,
      "mean_motion_rev_day": 15.35511999
    },
    {
      "epoch": "2026-03-30T12:42:42.524640Z",
      "apogee_km": 463.94124722481683,
      "perigee_km": 454.7911636852132,
      "latitude_deg": -1.026488096172507e-05,
      "longitude_deg": -122.3554650077152,
      "height_km": 460.5650171749812,
      "semi_major_axis_km": 6837.503205455015,
      "eccentricity": 0.00066911,
      "inclination_deg": 97.6732,
      "raan_deg": 256.2418,
      "arg_perigee_deg": 65.562,
      "mean_anomaly_deg": 294.632,
      "mean_motion_rev_day": 15.3552343
    },
    {
      "epoch": "2026-03-30T22:05:44.571264Z",
      "apogee_km": 463.8818526668729,
      "perigee_km": 454.7666962926378,
      "latitude_deg": -2.019004153340676e-05,
      "longitude_deg": 96.90782601939094,
      "height_km": 460.43843133267325,
      "semi_major_axis_km": 6837.461274479755,
      "eccentricity": 0.00066656,
      "inclination_deg": 97.6732,
      "raan_deg": 256.649,
      "arg_perigee_deg": 64.2839,
      "mean_anomaly_deg": 295.9091,
      "mean_motion_rev_day": 15.35537555
    },
    {
      "epoch": "2026-03-31T19:59:28.197600Z",
      "apogee_km": 463.75287026505157,
      "perigee_km": 454.711133496965,
      "latitude_deg": -2.493613385137598e-05,
      "longitude_deg": 128.52703726486678,
      "height_km": 460.1603961451782,
      "semi_major_axis_km": 6837.369001881008,
      "eccentricity": 0.0006612,
      "inclination_deg": 97.6734,
      "raan_deg": 257.5992,
      "arg_perigee_deg": 61.4043,
      "mean_anomaly_deg": 298.7864,
      "mean_motion_rev_day": 15.35568639
    },
    {
      "epoch": "2026-04-01T21:00:50.436000Z",
      "apogee_km": 463.6082661223045,
      "perigee_km": 454.65964589507985,
      "latitude_deg": 6.507719412876238e-05,
      "longitude_deg": 113.24241483114953,
      "height_km": 459.8696024623504,
      "semi_major_axis_km": 6837.270956008692,
      "eccentricity": 0.0006544,
      "inclination_deg": 97.6736,
      "raan_deg": 258.6849,
      "arg_perigee_deg": 58.2103,
      "mean_anomaly_deg": 301.9777,
      "mean_motion_rev_day": 15.35601669
    },
    {
      "epoch": "2026-04-02T20:28:20.414784Z",
      "apogee_km": 463.4397613216688,
      "perigee_km": 454.57472009916455,
      "latitude_deg": 3.3525270341352476e-06,
      "longitude_deg": 121.42191297551705,
      "height_km": 459.5794794343458,
      "semi_major_axis_km": 6837.144240710417,
      "eccentricity": 0.0006483,
      "inclination_deg": 97.674,
      "raan_deg": 259.7027,
      "arg_perigee_deg": 55.3365,
      "mean_anomaly_deg": 304.8488,
      "mean_motion_rev_day": 15.35644359
    },
    {
      "epoch": "2026-04-02T23:36:00.200160Z",
      "apogee_km": 463.40765259910404,
      "perigee_km": 454.54702590000943,
      "latitude_deg": -5.2545747304179936e-05,
      "longitude_deg": 74.51349733624616,
      "height_km": 459.5325436735283,
      "semi_major_axis_km": 6837.114339249556,
      "eccentricity": 0.00064798,
      "inclination_deg": 97.6741,
      "raan_deg": 259.8385,
      "arg_perigee_deg": 55.0474,
      "mean_anomaly_deg": 305.1376,
      "mean_motion_rev_day": 15.35654433
    },
    {
      "epoch": "2026-04-03T19:55:47.938080Z",
      "apogee_km": 463.2594124934858,
      "perigee_km": 454.4875280601209,
      "latitude_deg": 1.618216698195078e-05,
      "longitude_deg": 129.61205963350315,
      "height_km": 459.27215017985645,
      "semi_major_axis_km": 6837.010470276803,
      "eccentricity": 0.0006415,
      "inclination_deg": 97.6743,
      "raan_deg": 260.7209,
      "arg_perigee_deg": 52.084,
      "mean_anomaly_deg": 308.0982,
      "mean_motion_rev_day": 15.35689428
    },
    {
      "epoch": "2026-04-04T06:52:35.926752Z",
      "apogee_km": 463.2010761852598,
      "perigee_km": 454.4184710987738,
      "latitude_deg": -7.610478524116596e-05,
      "longitude_deg": -34.56224458091394,
      "height_km": 459.09597370628154,
      "semi_major_axis_km": 6836.9467736420165,
      "eccentricity": 0.00064229,
      "inclination_deg": 97.6745,
      "raan_deg": 261.1961,
      "arg_perigee_deg": 50.2504,
      "mean_anomaly_deg": 309.9303,
      "mean_motion_rev_day": 15.35710889
    },
    {
      "epoch": "2026-04-05T14:09:07.759296Z",
      "apogee_km": 463.0088418219666,
      "perigee_km": 454.34591432351044,
      "latitude_deg": -2.9246535504930967e-05,
      "longitude_deg": -143.62202770999315,
      "height_km": 458.77703256341016,
      "semi_major_axis_km": 6836.814378072738,
      "eccentricity": 0.00063355,
      "inclination_deg": 97.6748,
      "raan_deg": 262.5534,
      "arg_perigee_deg": 46.25,
      "mean_anomaly_deg": 313.9266,
      "mean_motion_rev_day": 15.35755498
    },
    {
      "epoch": "2026-04-05T20:24:25.750656Z",
      "apogee_km": 462.9749364955496,
      "perigee_km": 454.32503360206556,
      "latitude_deg": -2.3270190241122998e-05,
      "longitude_deg": 122.56762339888236,
      "height_km": 458.7036223964374,
      "semi_major_axis_km": 6836.786985048807,
      "eccentricity": 0.0006326,
      "inclination_deg": 97.6749,
      "raan_deg": 262.8249,
      "arg_perigee_deg": 45.3131,
      "mean_anomaly_deg": 314.8626,
      "mean_motion_rev_day": 15.35764728
    },
    {
      "epoch": "2026-04-06T07:21:11.982816Z",
      "apogee_km": 462.92338766794546,
      "perigee_km": 454.30128960701677,
      "latitude_deg": -8.209307956540645e-07,
      "longitude_deg": -41.59935809602506,
      "height_km": 458.5963541411532,
      "semi_major_axis_km": 6836.749338637481,
      "eccentricity": 0.00063057,
      "inclination_deg": 97.6751,
      "raan_deg": 263.3001,
      "arg_perigee_deg": 43.804,
      "mean_anomaly_deg": 316.3702,
      "mean_motion_rev_day": 15.35777413
    },
    {
      "epoch": "2026-04-07T13:03:49.976352Z",
      "apogee_km": 462.7611509585395,
      "perigee_km": 454.2548605095053,
      "latitude_deg": -3.420390215909018e-05,
      "longitude_deg": -127.18803242525242,
      "height_km": 458.34243177949986,
      "semi_major_axis_km": 6836.645005734023,
      "eccentricity": 0.00062211,
      "inclination_deg": 97.6753,
      "raan_deg": 264.5899,
      "arg_perigee_deg": 39.9244,
      "mean_anomaly_deg": 320.2455,
      "mean_motion_rev_day": 15.35812569
    },
    {
      "epoch": "2026-04-07T20:52:56.444736Z",
      "apogee_km": 462.72255107811816,
      "perigee_km": 454.2451412288883,
      "latitude_deg": 9.178779695425944e-06,
      "longitude_deg": 115.55331632147609,
      "height_km": 458.2811094452432,
      "semi_major_axis_km": 6836.6208461535025,
      "eccentricity": 0.00062,
      "inclination_deg": 97.6754,
      "raan_deg": 264.9293,
      "arg_perigee_deg": 38.8932,
      "mean_anomaly_deg": 321.2756,
      "mean_motion_rev_day": 15.3582071
    },
    {
      "epoch": "2026-04-08T15:38:47.272128Z",
      "apogee_km": 462.6379523293581,
      "perigee_km": 454.21284629094407,
      "latitude_deg": 7.77799720571896e-06,
      "longitude_deg": -165.86448165806544,
      "height_km": 458.1319607424501,
      "semi_major_axis_km": 6836.562399310151,
      "eccentricity": 0.00061618,
      "inclination_deg": 97.6755,
      "raan_deg": 265.7439,
      "arg_perigee_deg": 36.4097,
      "mean_anomaly_deg": 323.7564,
      "mean_motion_rev_day": 15.35840405
    }
  ]
}